[{"OBJECT_NAME":"IRIDIUM 181","OBJECT_ID":"2023-068S","EPOCH":"2026-03-09T14:51:01.796256","MEAN_MOTION":14.43307145,"ECCENTRICITY":0.0002603,"INCLINATION":86.4454,"RA_OF_ASC_NODE":98.4288,"ARG_OF_PERICENTER":96.8881,"MEAN_ANOMALY":263.2616,"EPHEMERIS_TYPE":0,"CLASSIFICATION_TYPE":"U","NORAD_CAT_ID":56726,"ELEMENT_SET_NO":999,"REV_AT_EPOCH":14807,"BSTAR":1.6704e-5,"MEAN_MOTION_DOT":7.6e-7,"MEAN_MOTION_DDOT":0},{"OBJECT_NAME":"COSMOS 2251 DEB","OBJECT_ID":"1993-036ANL","EPOCH":"2026-03-08T06:40:53.915520","MEAN_MOTION":14.4670988,"ECCENTRICITY":0.00679302,"INCLINATION":73.9637,"RA_OF_ASC_NODE":287.3717,"ARG_OF_PERICENTER":65.5858,"MEAN_ANOMALY":295.2368,"EPHEMERIS_TYPE":0,"CLASSIFICATION_TYPE":"U","NORAD_CAT_ID":35645,"ELEMENT_SET_NO":999,"REV_AT_EPOCH":88008,"BSTAR":0.00195135,"MEAN_MOTION_DOT":7.24e-5,"MEAN_MOTION_DDOT":0}]
